STARLINK-1770           
1 46383U 20062BL  25125.89677523  .00008949  00000+0  61900-3 0  9994
2 46383  53.0546 318.3526 0001284  91.2141 268.8995 15.06392205258094
STARLINK-1771           
1 46384U 20062BM  25125.83411239 -.00000124  00000+0  10591-4 0  9998
2 46384  53.0548 318.6342 0001560  89.7029 270.4139 15.06401200257904
STARLINK-1648           
1 46533U 20070B   25125.71249781  .00006583  00000+0  46051-3 0  9994
2 46533  53.0531 119.1817 0001461  98.1411 261.9744 15.06392599253084
STARLINK-1659           
1 46534U 20070C   25126.31220538  .16864381  12525-4  55487-3 0  9999
2 46534  53.0220  54.9810 0003797 301.2394 199.3914 16.44653094254055
STARLINK-1663           
1 46535U 20070D   25126.21378703  .00011707  00000+0  80396-3 0  9993
2 46535  53.0532 116.9285 0001326  77.5313 282.5824 15.06378086253176
STARLINK-1672           
1 46537U 20070F   25126.23956196  .00001370  00000+0  11089-3 0  9993
2 46537  53.0542 116.8118 0001354  92.5334 267.5810 15.06389210252879
STARLINK-1678           
1 46538U 20070G   25126.21745246  .00000508  00000+0  53015-4 0  9992
2 46538  53.0550 116.9095 0001393  87.9108 272.2040 15.06382652252864
STARLINK-1687           
1 46541U 20070K   25126.13083351  .00002478  00000+0  18523-3 0  9991
2 46541  53.0545  97.3025 0001686  71.9221 288.1951 15.06394282253423
STARLINK-1692           
1 46542U 20070L   25126.23058446  .00086774  00000+0  31678-2 0  9996
2 46542  53.0424 108.0590 0012132 335.9656  24.0775 15.27338952253291
STARLINK-1693           
1 46543U 20070M   25125.87526714  .00181794  00000+0  25353-2 0  9995
2 46543  53.0495  79.4157 0008232  30.7511 329.3980 15.55759567253666
STARLINK-1694           
1 46544U 20070N   25125.85484505  .02103526  54556-2  13689-2 0  9991
2 46544  53.0260  44.1543 0004127 191.5588 289.6874 16.17985751254154
STARLINK-1700           
1 46549U 20070T   25126.23474964  .00070767  00000+0  28571-2 0  9993
2 46549  53.0504 108.6754 0006438 340.4061  19.6687 15.24137425252984
STARLINK-1664           
1 46553U 20070X   25125.85162380  .00001825  00000+0  14137-3 0  9994
2 46553  53.0548  88.5663 0001419  88.3002 271.8149 15.06394565253525
STARLINK-1676           
1 46556U 20070AA  25126.22852612 -.00000130  00000+0  10173-4 0  9999
2 46556  53.0548 116.8610 0001403  92.2664 267.8485 15.06373751253180
