[
  {
    "OBJECT_NAME": "STARLINK-1770",
    "OBJECT_ID": "2020-062BL",
    "EPOCH": "2025-05-05T21:31:21.379872",
    "MEAN_MOTION": 15.06392205,
    "ECCENTRICITY": 0.0001284,
    "INCLINATION": 53.0546,
    "RA_OF_ASC_NODE": 318.3526,
    "ARG_OF_PERICENTER": 91.2141,
    "MEAN_ANOMALY": 268.8995,
    "EPHEMERIS_TYPE": 0,
    "CLASSIFICATION_TYPE": "U",
    "NORAD_CAT_ID": 46383,
    "ELEMENT_SET_NO": 999,
    "REV_AT_EPOCH": 25809,
    "BSTAR": 0.000619,
    "MEAN_MOTION_DOT": 8.949e-05,
    "MEAN_MOTION_DDOT": 0
  },
  {
    "OBJECT_NAME": "STARLINK-1771",
    "OBJECT_ID": "2020-062BM",
    "EPOCH": "2025-05-05T20:01:07.310496",
    "MEAN_MOTION": 15.064012,
    "ECCENTRICITY": 0.000156,
    "INCLINATION": 53.0548,
    "RA_OF_ASC_NODE": 318.6342,
    "ARG_OF_PERICENTER": 89.7029,
    "MEAN_ANOMALY": 270.4139,
    "EPHEMERIS_TYPE": 0,
    "CLASSIFICATION_TYPE": "U",
    "NORAD_CAT_ID": 46384,
    "ELEMENT_SET_NO": 999,
    "REV_AT_EPOCH": 25790,
    "BSTAR": 1.0591e-05,
    "MEAN_MOTION_DOT": -1.24e-06,
    "MEAN_MOTION_DDOT": 0
  },
  {
    "OBJECT_NAME": "STARLINK-1648",
    "OBJECT_ID": "2020-070B",
    "EPOCH": "2025-05-05T17:05:59.810784",
    "MEAN_MOTION": 15.06392599,
    "ECCENTRICITY": 0.0001461,
    "INCLINATION": 53.0531,
    "RA_OF_ASC_NODE": 119.1817,
    "ARG_OF_PERICENTER": 98.1411,
    "MEAN_ANOMALY": 261.9744,
    "EPHEMERIS_TYPE": 0,
    "CLASSIFICATION_TYPE": "U",
    "NORAD_CAT_ID": 46533,
    "ELEMENT_SET_NO": 999,
    "REV_AT_EPOCH": 25308,
    "BSTAR": 0.00046051,
    "MEAN_MOTION_DOT": 6.583e-05,
    "MEAN_MOTION_DDOT": 0
  },
  {
    "OBJECT_NAME": "STARLINK-1659",
    "OBJECT_ID": "2020-070C",
    "EPOCH": "2025-05-06T07:29:34.544832",
    "MEAN_MOTION": 16.44653094,
    "ECCENTRICITY": 0.0003797,
    "INCLINATION": 53.022,
    "RA_OF_ASC_NODE": 54.981,
    "ARG_OF_PERICENTER": 301.2394,
    "MEAN_ANOMALY": 199.3914,
    "EPHEMERIS_TYPE": 0,
    "CLASSIFICATION_TYPE": "U",
    "NORAD_CAT_ID": 46534,
    "ELEMENT_SET_NO": 999,
    "REV_AT_EPOCH": 25405,
    "BSTAR": 0.00055487,
    "MEAN_MOTION_DOT": 0.16864381,
    "MEAN_MOTION_DDOT": 1.2525e-05
  },
  {
    "OBJECT_NAME": "STARLINK-1663",
    "OBJECT_ID": "2020-070D",
    "EPOCH": "2025-05-06T05:07:51.199392",
    "MEAN_MOTION": 15.06378086,
    "ECCENTRICITY": 0.0001326,
    "INCLINATION": 53.0532,
    "RA_OF_ASC_NODE": 116.9285,
    "ARG_OF_PERICENTER": 77.5313,
    "MEAN_ANOMALY": 282.5824,
    "EPHEMERIS_TYPE": 0,
    "CLASSIFICATION_TYPE": "U",
    "NORAD_CAT_ID": 46535,
    "ELEMENT_SET_NO": 999,
    "REV_AT_EPOCH": 25317,
    "BSTAR": 0.00080396,
    "MEAN_MOTION_DOT": 0.00011707,
    "MEAN_MOTION_DDOT": 0
  },
  {
    "OBJECT_NAME": "STARLINK-1672",
    "OBJECT_ID": "2020-070F",
    "EPOCH": "2025-05-06T05:44:58.153344",
    "MEAN_MOTION": 15.0638921,
    "ECCENTRICITY": 0.0001354,
    "INCLINATION": 53.0542,
    "RA_OF_ASC_NODE": 116.8118,
    "ARG_OF_PERICENTER": 92.5334,
    "MEAN_ANOMALY": 267.581,
    "EPHEMERIS_TYPE": 0,
    "CLASSIFICATION_TYPE": "U",
    "NORAD_CAT_ID": 46537,
    "ELEMENT_SET_NO": 999,
    "REV_AT_EPOCH": 25287,
    "BSTAR": 0.00011089,
    "MEAN_MOTION_DOT": 1.37e-05,
    "MEAN_MOTION_DDOT": 0
  },
  {
    "OBJECT_NAME": "STARLINK-1678",
    "OBJECT_ID": "2020-070G",
    "EPOCH": "2025-05-06T05:13:07.892544",
    "MEAN_MOTION": 15.06382652,
    "ECCENTRICITY": 0.0001393,
    "INCLINATION": 53.055,
    "RA_OF_ASC_NODE": 116.9095,
    "ARG_OF_PERICENTER": 87.9108,
    "MEAN_ANOMALY": 272.204,
    "EPHEMERIS_TYPE": 0,
    "CLASSIFICATION_TYPE": "U",
    "NORAD_CAT_ID": 46538,
    "ELEMENT_SET_NO": 999,
    "REV_AT_EPOCH": 25286,
    "BSTAR": 5.3015e-05,
    "MEAN_MOTION_DOT": 5.08e-06,
    "MEAN_MOTION_DDOT": 0
  },
  {
    "OBJECT_NAME": "STARLINK-1687",
    "OBJECT_ID": "2020-070K",
    "EPOCH": "2025-05-06T03:08:24.015264",
    "MEAN_MOTION": 15.06394282,
    "ECCENTRICITY": 0.0001686,
    "INCLINATION": 53.0545,
    "RA_OF_ASC_NODE": 97.3025,
    "ARG_OF_PERICENTER": 71.9221,
    "MEAN_ANOMALY": 288.1951,
    "EPHEMERIS_TYPE": 0,
    "CLASSIFICATION_TYPE": "U",
    "NORAD_CAT_ID": 46541,
    "ELEMENT_SET_NO": 999,
    "REV_AT_EPOCH": 25342,
    "BSTAR": 0.00018523,
    "MEAN_MOTION_DOT": 2.478e-05,
    "MEAN_MOTION_DDOT": 0
  },
  {
    "OBJECT_NAME": "STARLINK-1692",
    "OBJECT_ID": "2020-070L",
    "EPOCH": "2025-05-06T05:32:02.497344",
    "MEAN_MOTION": 15.27338952,
    "ECCENTRICITY": 0.0012132,
    "INCLINATION": 53.0424,
    "RA_OF_ASC_NODE": 108.059,
    "ARG_OF_PERICENTER": 335.9656,
    "MEAN_ANOMALY": 24.0775,
    "EPHEMERIS_TYPE": 0,
    "CLASSIFICATION_TYPE": "U",
    "NORAD_CAT_ID": 46542,
    "ELEMENT_SET_NO": 999,
    "REV_AT_EPOCH": 25329,
    "BSTAR": 0.0031678,
    "MEAN_MOTION_DOT": 0.00086774,
    "MEAN_MOTION_DDOT": 0
  },
  {
    "OBJECT_NAME": "STARLINK-1693",
    "OBJECT_ID": "2020-070M",
    "EPOCH": "2025-05-05T21:00:23.080896",
    "MEAN_MOTION": 15.55759567,
    "ECCENTRICITY": 0.0008232,
    "INCLINATION": 53.0495,
    "RA_OF_ASC_NODE": 79.4157,
    "ARG_OF_PERICENTER": 30.7511,
    "MEAN_ANOMALY": 329.398,
    "EPHEMERIS_TYPE": 0,
    "CLASSIFICATION_TYPE": "U",
    "NORAD_CAT_ID": 46543,
    "ELEMENT_SET_NO": 999,
    "REV_AT_EPOCH": 25366,
    "BSTAR": 0.0025353,
    "MEAN_MOTION_DOT": 0.00181794,
    "MEAN_MOTION_DDOT": 0
  },
  {
    "OBJECT_NAME": "STARLINK-1694",
    "OBJECT_ID": "2020-070N",
    "EPOCH": "2025-05-05T20:30:58.612320",
    "MEAN_MOTION": 16.17985751,
    "ECCENTRICITY": 0.0004127,
    "INCLINATION": 53.026,
    "RA_OF_ASC_NODE": 44.1543,
    "ARG_OF_PERICENTER": 191.5588,
    "MEAN_ANOMALY": 289.6874,
    "EPHEMERIS_TYPE": 0,
    "CLASSIFICATION_TYPE": "U",
    "NORAD_CAT_ID": 46544,
    "ELEMENT_SET_NO": 999,
    "REV_AT_EPOCH": 25415,
    "BSTAR": 0.0013689,
    "MEAN_MOTION_DOT": 0.02103526,
    "MEAN_MOTION_DDOT": 0.0054556
  },
  {
    "OBJECT_NAME": "STARLINK-1700",
    "OBJECT_ID": "2020-070T",
    "EPOCH": "2025-05-06T05:38:02.368896",
    "MEAN_MOTION": 15.24137425,
    "ECCENTRICITY": 0.0006438,
    "INCLINATION": 53.0504,
    "RA_OF_ASC_NODE": 108.6754,
    "ARG_OF_PERICENTER": 340.4061,
    "MEAN_ANOMALY": 19.6687,
    "EPHEMERIS_TYPE": 0,
    "CLASSIFICATION_TYPE": "U",
    "NORAD_CAT_ID": 46549,
    "ELEMENT_SET_NO": 999,
    "REV_AT_EPOCH": 25298,
    "BSTAR": 0.0028571,
    "MEAN_MOTION_DOT": 0.00070767,
    "MEAN_MOTION_DDOT": 0
  },
  {
    "OBJECT_NAME": "STARLINK-1664",
    "OBJECT_ID": "2020-070X",
    "EPOCH": "2025-05-05T20:26:20.296320",
    "MEAN_MOTION": 15.06394565,
    "ECCENTRICITY": 0.0001419,
    "INCLINATION": 53.0548,
    "RA_OF_ASC_NODE": 88.5663,
    "ARG_OF_PERICENTER": 88.3002,
    "MEAN_ANOMALY": 271.8149,
    "EPHEMERIS_TYPE": 0,
    "CLASSIFICATION_TYPE": "U",
    "NORAD_CAT_ID": 46553,
    "ELEMENT_SET_NO": 999,
    "REV_AT_EPOCH": 25352,
    "BSTAR": 0.00014137,
    "MEAN_MOTION_DOT": 1.825e-05,
    "MEAN_MOTION_DDOT": 0
  },
  {
    "OBJECT_NAME": "STARLINK-1676",
    "OBJECT_ID": "2020-070AA",
    "EPOCH": "2025-05-06T05:29:04.656768",
    "MEAN_MOTION": 15.06373751,
    "ECCENTRICITY": 0.0001403,
    "INCLINATION": 53.0548,
    "RA_OF_ASC_NODE": 116.861,
    "ARG_OF_PERICENTER": 92.2664,
    "MEAN_ANOMALY": 267.8485,
    "EPHEMERIS_TYPE": 0,
    "CLASSIFICATION_TYPE": "U",
    "NORAD_CAT_ID": 46556,
    "ELEMENT_SET_NO": 999,
    "REV_AT_EPOCH": 25318,
    "BSTAR": 1.0173e-05,
    "MEAN_MOTION_DOT": -1.3e-06,
    "MEAN_MOTION_DDOT": 0
  }
]